[{"OBJECT_NAME":"STARLINK-1712","OBJECT_ID":"2020-070BB","EPOCH":"2026-03-09T21:58:35.926176","MEAN_MOTION":16.0385748,"ECCENTRICITY":0.00045072,"INCLINATION":53.0272,"RA_OF_ASC_NODE":79.1068,"ARG_OF_PERICENTER":14.3699,"MEAN_ANOMALY":345.7459,"EPHEMERIS_TYPE":0,"CLASSIFICATION_TYPE":"U","NORAD_CAT_ID":46581,"ELEMENT_SET_NO":999,"REV_AT_EPOCH":30089,"BSTAR":0.0014449658,"MEAN_MOTION_DOT":0.00944814,"MEAN_MOTION_DDOT":0.00046945862},{"OBJECT_NAME":"STARLINK-36913","OBJECT_ID":"2026-040S","EPOCH":"2026-03-09T22:00:01.999584","MEAN_MOTION":16.06404551,"ECCENTRICITY":8.263e-5,"INCLINATION":97.2773,"RA_OF_ASC_NODE":17.1254,"ARG_OF_PERICENTER":94.5563,"MEAN_ANOMALY":290.002,"EPHEMERIS_TYPE":0,"CLASSIFICATION_TYPE":"U","NORAD_CAT_ID":68031,"ELEMENT_SET_NO":999,"REV_AT_EPOCH":246,"BSTAR":-0.0015803112,"MEAN_MOTION_DOT":-0.01162731,"MEAN_MOTION_DDOT":0.00046708771}]
